[
    {
        "Altitude(m)": 604983.0528593007,
        "Argument of Periapsis(deg)": 0.0,
        "Eccentricity": 0.0,
        "Inclination(deg)": 60.0,
        "Latitude(deg)": -0.09255611749270334,
        "Longitude(deg)": 135.08391627582822,
        "Mean Anomaly(deg)": 180.0,
        "RAAN(deg)": 55.00000000000001,
        "Satellite Name": "Test1 253",
        "Satellite Number": 253,
        "Semi-Major Axis(m)": 6980739.136638005,
        "Time(s)": 0
    },
    {
        "Altitude(m)": 605055.3316811966,
        "Argument of Periapsis(deg)": 0.00010418945913296404,
        "Eccentricity": 0.0,
        "Inclination(deg)": 60.0,
        "Latitude(deg)": -0.6329663595599284,
        "Longitude(deg)": 135.3520404522375,
        "Mean Anomaly(deg)": 180.62010614546185,
        "RAAN(deg)": 54.999579950860266,
        "Satellite Name": "Test1 253",
        "Satellite Number": 253,
        "Semi-Major Axis(m)": 6980739.136638005,
        "Time(s)": 10
    },
    {
        "Altitude(m)": 605130.81956944,
        "Argument of Periapsis(deg)": 0.0002083789182659281,
        "Eccentricity": 0.0,
        "Inclination(deg)": 60.0,
        "Latitude(deg)": -1.1733456835404432,
        "Longitude(deg)": 135.62022225786245,
        "Mean Anomaly(deg)": 181.24021229092364,
        "RAAN(deg)": 54.999159901720525,
        "Satellite Name": "Test1 253",
        "Satellite Number": 253,
        "Semi-Major Axis(m)": 6980739.136638005,
        "Time(s)": 20
    },
    {
        "Altitude(m)": 605209.5055609931,
        "Argument of Periapsis(deg)": 0.00031256837739889213,
        "Eccentricity": 0.0,
        "Inclination(deg)": 60.0,
        "Latitude(deg)": -1.713677009054958,
        "Longitude(deg)": 135.88851608038453,
        "Mean Anomaly(deg)": 181.86031843638546,
        "RAAN(deg)": 54.99873985258077,
        "Satellite Name": "Test1 253",
        "Satellite Number": 253,
        "Semi-Major Axis(m)": 6980739.136638005,
        "Time(s)": 30
    },
    {
        "Altitude(m)": 605291.3771688824,
        "Argument of Periapsis(deg)": 0.0004167578365318562,
        "Eccentricity": 0.0,
        "Inclination(deg)": 60.0,
        "Latitude(deg)": -2.253943237675456,
        "Longitude(deg)": 136.15697687527148,
        "Mean Anomaly(deg)": 182.4804245818473,
        "RAAN(deg)": 54.99831980344103,
        "Satellite Name": "Test1 253",
        "Satellite Number": 253,
        "Semi-Major Axis(m)": 6980739.136638005,
        "Time(s)": 40
    },
    {
        "Altitude(m)": 605376.4203855378,
        "Argument of Periapsis(deg)": 0.0005209472956648203,
        "Eccentricity": 0.0,
        "Inclination(deg)": 60.0,
        "Latitude(deg)": -2.7941272430121797,
        "Longitude(deg)": 136.42565918919743,
        "Mean Anomaly(deg)": 183.10053072730915,
        "RAAN(deg)": 54.99789975430129,
        "Satellite Name": "Test1 253",
        "Satellite Number": 253,
        "Semi-Major Axis(m)": 6980739.136638005,
        "Time(s)": 50
    },
    {
        "Altitude(m)": 605464.6196868474,
        "Argument of Periapsis(deg)": 0.0006251367547977843,
        "Eccentricity": 0.0,
        "Inclination(deg)": 60.0,
        "Latitude(deg)": -3.334211860762493,
        "Longitude(deg)": 136.69461769641973,
        "Mean Anomaly(deg)": 183.720636872771,
        "RAAN(deg)": 54.99747970516154,
        "Satellite Name": "Test1 253",
        "Satellite Number": 253,
        "Semi-Major Axis(m)": 6980739.136638005,
        "Time(s)": 60
    },
    {
        "Altitude(m)": 605555.9580369854,
        "Argument of Periapsis(deg)": 0.0007293262139307483,
        "Eccentricity": 0.0,
        "Inclination(deg)": 60.0,
        "Latitude(deg)": -3.874179878706499,
        "Longitude(deg)": 136.96390773526787,
        "Mean Anomaly(deg)": 184.34074301823284,
        "RAAN(deg)": 54.9970596560218,
        "Satellite Name": "Test1 253",
        "Satellite Number": 253,
        "Semi-Major Axis(m)": 6980739.136638005,
        "Time(s)": 70
    },
    {
        "Altitude(m)": 605650.416893961,
        "Argument of Periapsis(deg)": 0.0008335156730637124,
        "Eccentricity": 0.0,
        "Inclination(deg)": 60.0,
        "Latitude(deg)": -4.414014026633614,
        "Longitude(deg)": 137.23358433190037,
        "Mean Anomaly(deg)": 184.9608491636947,
        "RAAN(deg)": 54.996639606882056,
        "Satellite Name": "Test1 253",
        "Satellite Number": 253,
        "Semi-Major Axis(m)": 6980739.136638005,
        "Time(s)": 80
    },
    {
        "Altitude(m)": 605747.9762159354,
        "Argument of Periapsis(deg)": 0.0009377051321966765,
        "Eccentricity": 0.0,
        "Inclination(deg)": 60.0,
        "Latitude(deg)": -4.953696966190234,
        "Longitude(deg)": 137.50370273710396,
        "Mean Anomaly(deg)": 185.58095530915645,
        "RAAN(deg)": 54.996219557742315,
        "Satellite Name": "Test1 253",
        "Satellite Number": 253,
        "Semi-Major Axis(m)": 6980739.136638005,
        "Time(s)": 90
    },
    {
        "Altitude(m)": 605848.6144682554,
        "Argument of Periapsis(deg)": 0.0010418945913296407,
        "Eccentricity": 0.0,
        "Inclination(deg)": 60.0,
        "Latitude(deg)": -5.4932112806341165,
        "Longitude(deg)": 137.77431896329256,
        "Mean Anomaly(deg)": 186.2010614546183,
        "RAAN(deg)": 54.99579950860257,
        "Satellite Name": "Test1 253",
        "Satellite Number": 253,
        "Semi-Major Axis(m)": 6980739.136638005,
        "Time(s)": 100
    },
    {
        "Altitude(m)": 605952.3086312294,
        "Argument of Periapsis(deg)": 0.0011460840504626045,
        "Eccentricity": 0.0,
        "Inclination(deg)": 60.0,
        "Latitude(deg)": -6.032539464477739,
        "Longitude(deg)": 138.04548880885972,
        "Mean Anomaly(deg)": 186.82116760008014,
        "RAAN(deg)": 54.99537945946283,
        "Satellite Name": "Test1 253",
        "Satellite Number": 253,
        "Semi-Major Axis(m)": 6980739.136638005,
        "Time(s)": 110
    },
    {
        "Altitude(m)": 606059.0342086368,
        "Argument of Periapsis(deg)": 0.0012502735095955685,
        "Eccentricity": 0.0,
        "Inclination(deg)": 60.0,
        "Latitude(deg)": -6.571663913012195,
        "Longitude(deg)": 138.31726839566156,
        "Mean Anomaly(deg)": 187.441273745542,
        "RAAN(deg)": 54.99495941032309,
        "Satellite Name": "Test1 253",
        "Satellite Number": 253,
        "Semi-Major Axis(m)": 6980739.136638005,
        "Time(s)": 120
    },
    {
        "Altitude(m)": 606168.7652369682,
        "Argument of Periapsis(deg)": 0.0013544629687285324,
        "Eccentricity": 0.0,
        "Inclination(deg)": 60.0,
        "Latitude(deg)": -7.110566911694294,
        "Longitude(deg)": 138.5897147067847,
        "Mean Anomaly(deg)": 188.06137989100375,
        "RAAN(deg)": 54.99453936118335,
        "Satellite Name": "Test1 253",
        "Satellite Number": 253,
        "Semi-Major Axis(m)": 6980739.136638005,
        "Time(s)": 130
    },
    {
        "Altitude(m)": 606281.4742953597,
        "Argument of Periapsis(deg)": 0.0014586524278614966,
        "Eccentricity": 0.0,
        "Inclination(deg)": 60.0,
        "Latitude(deg)": -7.649230625381912,
        "Longitude(deg)": 138.862884611757,
        "Mean Anomaly(deg)": 188.68148603646569,
        "RAAN(deg)": 54.99411931204361,
        "Satellite Name": "Test1 253",
        "Satellite Number": 253,
        "Semi-Major Axis(m)": 6980739.136638005,
        "Time(s)": 140
    },
    {
        "Altitude(m)": 606397.1325163012,
        "Argument of Periapsis(deg)": 0.0015628418869944607,
        "Eccentricity": 0.0,
        "Inclination(deg)": 60.0,
        "Latitude(deg)": -8.187637087404577,
        "Longitude(deg)": 139.13683540497416,
        "Mean Anomaly(deg)": 189.30159218192745,
        "RAAN(deg)": 54.99369926290386,
        "Satellite Name": "Test1 253",
        "Satellite Number": 253,
        "Semi-Major Axis(m)": 6980739.136638005,
        "Time(s)": 150
    },
    {
        "Altitude(m)": 606515.7095969687,
        "Argument of Periapsis(deg)": 0.0016670313461274247,
        "Eccentricity": 0.0,
        "Inclination(deg)": 60.0,
        "Latitude(deg)": -8.725768188455433,
        "Longitude(deg)": 139.41162534450044,
        "Mean Anomaly(deg)": 189.9216983273893,
        "RAAN(deg)": 54.99327921376412,
        "Satellite Name": "Test1 253",
        "Satellite Number": 253,
        "Semi-Major Axis(m)": 6980739.136638005,
        "Time(s)": 160
    },
    {
        "Altitude(m)": 606637.1738113436,
        "Argument of Periapsis(deg)": 0.0017712208052603888,
        "Eccentricity": 0.0,
        "Inclination(deg)": 60.0,
        "Latitude(deg)": -9.263605665284578,
        "Longitude(deg)": 139.68731267839857,
        "Mean Anomaly(deg)": 190.54180447285114,
        "RAAN(deg)": 54.99285916462438,
        "Satellite Name": "Test1 253",
        "Satellite Number": 253,
        "Semi-Major Axis(m)": 6980739.136638005,
        "Time(s)": 170
    },
    {
        "Altitude(m)": 606761.4920229769,
        "Argument of Periapsis(deg)": 0.001875410264393353,
        "Eccentricity": 0.0,
        "Inclination(deg)": 60.0,
        "Latitude(deg)": -9.801131089184183,
        "Longitude(deg)": 139.9639561843644,
        "Mean Anomaly(deg)": 191.16191061831296,
        "RAAN(deg)": 54.992439115484636,
        "Satellite Name": "Test1 253",
        "Satellite Number": 253,
        "Semi-Major Axis(m)": 6980739.136638005,
        "Time(s)": 180
    },
    {
        "Altitude(m)": 606888.6296984684,
        "Argument of Periapsis(deg)": 0.0019795997235263173,
        "Eccentricity": 0.0,
        "Inclination(deg)": 60.0,
        "Latitude(deg)": -10.338325854246893,
        "Longitude(deg)": 140.24161570982326,
        "Mean Anomaly(deg)": 191.78201676377475,
        "RAAN(deg)": 54.992019066344895,
        "Satellite Name": "Test1 253",
        "Satellite Number": 253,
        "Semi-Major Axis(m)": 6980739.136638005,
        "Time(s)": 190
    }
]